[{"OBJECT_NAME":"ION SCV-011","OBJECT_ID":"2023-084AB","EPOCH":"2026-03-09T22:35:16.566144","MEAN_MOTION":15.27752464,"ECCENTRICITY":0.00079323,"INCLINATION":98.1356,"RA_OF_ASC_NODE":247.1056,"ARG_OF_PERICENTER":30.3898,"MEAN_ANOMALY":329.7798,"EPHEMERIS_TYPE":0,"CLASSIFICATION_TYPE":"U","NORAD_CAT_ID":56957,"ELEMENT_SET_NO":999,"REV_AT_EPOCH":15065,"BSTAR":0.0002590454,"MEAN_MOTION_DOT":6.943e-5,"MEAN_MOTION_DDOT":0},{"OBJECT_NAME":"STARLINK-31454","OBJECT_ID":"2024-036S","EPOCH":"2026-03-09T07:50:39.827904","MEAN_MOTION":15.30194323,"ECCENTRICITY":0.00013146,"INCLINATION":53.1592,"RA_OF_ASC_NODE":80.0967,"ARG_OF_PERICENTER":85.187,"MEAN_ANOMALY":274.9281,"EPHEMERIS_TYPE":0,"CLASSIFICATION_TYPE":"U","NORAD_CAT_ID":59014,"ELEMENT_SET_NO":999,"REV_AT_EPOCH":11526,"BSTAR":5.5488075e-5,"MEAN_MOTION_DOT":1.284e-5,"MEAN_MOTION_DDOT":0}]
